ONEWEB-0438             
1 51634U 22012N   26111.52172405  .00000095  00000+0  23677-3 0  9994
2 51634  87.8840  47.5558 0001810  84.3959 275.7375 13.10368779201923
ONEWEB-0439             
1 51635U 22012P   26111.52504822 -.00000189  00000+0 -57808-3 0  9996
2 51635  87.8838  47.5435 0001957  81.9316 278.2033 13.10369658201901
ONEWEB-0442             
1 51636U 22012Q   26111.48029963 -.00000027  00000+0 -10342-3 0  9993
2 51636  87.9185  17.1438 0001480  96.4103 263.7197 13.17647388206204
ONEWEB-0443             
1 51637U 22012R   26111.49970463  .00000042  00000+0  73972-4 0  9999
2 51637  87.9189  17.1419 0002102  87.9657 272.1716 13.17648081206256
ONEWEB-0444             
1 51638U 22012S   26111.36238635  .00002622  00000+0  74740-2 0  9992
2 51638  87.8843  47.5745 0002187  83.3118 276.8258 13.10371813201893
ONEWEB-0445             
1 51639U 22012T   26111.30759830 -.00000581  00000+0 -17001-2 0  9993
2 51639  87.8865  47.5687 0001749  72.9500 287.1819 13.10373561201895
ONEWEB-0446             
1 51640U 22012U   26111.51343836  .00000508  00000+0  14190-2 0  9996
2 51640  87.8847  47.5609 0001791  77.0175 283.1153 13.10369220201908
ONEWEB-0448             
1 51641U 22012V   26111.51841617  .00000050  00000+0  10747-3 0  9994
2 51641  87.8839  47.5577 0002044  82.2727 277.8633 13.10373632201878
ONEWEB-0449             
1 51642U 22012W   26111.52338281 -.00000073  00000+0 -24397-3 0  9997
2 51642  87.8847  47.5391 0001806  93.8532 266.2802 13.10369213201880
ONEWEB-0451             
1 51643U 22012X   26111.48453091  .00000028  00000+0  37980-4 0  9991
2 51643  87.9193  17.1027 0001764  86.8656 273.2678 13.17649658206196
ONEWEB-0452             
1 51644U 22012Y   26111.48282758 -.00000014  00000+0 -69771-4 0  9992
2 51644  87.9184  17.1453 0001946  88.2359 271.8995 13.17649367206203
ONEWEB-0456             
1 51646U 22012AA  26111.30426744 -.00000467  00000+0 -13740-2 0  9995
2 51646  87.8853  47.5652 0002033  77.8986 282.2369 13.10371142201890
ONEWEB-0457             
1 51647U 22012AB  26111.51011928  .00000552  00000+0  15448-2 0  9993
2 51647  87.8841  47.5491 0001451  78.0346 282.0944 13.10370226201928
ONEWEB-0458             
1 51648U 22012AC  26111.30260921 -.00000532  00000+0 -15595-2 0  9993
2 51648  87.8846  47.5735 0001928  84.4112 275.7235 13.10370804201852
ONEWEB-0461             
1 51649U 22012AD  26111.50476568 -.00000023  00000+0 -91646-4 0  9990
2 51649  87.9195  17.1134 0001725  78.5570 281.5755 13.17647551206427
ONEWEB-0463             
1 51650U 22012AE  26111.48621383  .00000076  00000+0  16142-3 0  9999
2 51650  87.9181  17.1452 0001695  77.7545 282.3776 13.17649126206204
