[{"OBJECT_NAME":"ONEWEB-0438","OBJECT_ID":"2022-012N","EPOCH":"2026-04-21T12:31:16.957920","MEAN_MOTION":13.10368779,"ECCENTRICITY":0.000181,"INCLINATION":87.884,"RA_OF_ASC_NODE":47.5558,"ARG_OF_PERICENTER":84.3959,"MEAN_ANOMALY":275.7375,"EPHEMERIS_TYPE":0,"CLASSIFICATION_TYPE":"U","NORAD_CAT_ID":51634,"ELEMENT_SET_NO":999,"REV_AT_EPOCH":20192,"BSTAR":0.00023677000000000003,"MEAN_MOTION_DOT":9.5e-07,"MEAN_MOTION_DDOT":0.0},{"OBJECT_NAME":"ONEWEB-0439","OBJECT_ID":"2022-012P","EPOCH":"2026-04-21T12:36:04.166208","MEAN_MOTION":13.10369658,"ECCENTRICITY":0.0001957,"INCLINATION":87.8838,"RA_OF_ASC_NODE":47.5435,"ARG_OF_PERICENTER":81.9316,"MEAN_ANOMALY":278.2033,"EPHEMERIS_TYPE":0,"CLASSIFICATION_TYPE":"U","NORAD_CAT_ID":51635,"ELEMENT_SET_NO":999,"REV_AT_EPOCH":20190,"BSTAR":-0.00057808,"MEAN_MOTION_DOT":-1.89e-06,"MEAN_MOTION_DDOT":0.0},{"OBJECT_NAME":"ONEWEB-0442","OBJECT_ID":"2022-012Q","EPOCH":"2026-04-21T11:31:37.888032","MEAN_MOTION":13.17647388,"ECCENTRICITY":0.000148,"INCLINATION":87.9185,"RA_OF_ASC_NODE":17.1438,"ARG_OF_PERICENTER":96.4103,"MEAN_ANOMALY":263.7197,"EPHEMERIS_TYPE":0,"CLASSIFICATION_TYPE":"U","NORAD_CAT_ID":51636,"ELEMENT_SET_NO":999,"REV_AT_EPOCH":20620,"BSTAR":-0.00010342,"MEAN_MOTION_DOT":-2.7e-07,"MEAN_MOTION_DDOT":0.0},{"OBJECT_NAME":"ONEWEB-0443","OBJECT_ID":"2022-012R","EPOCH":"2026-04-21T11:59:34.480032","MEAN_MOTION":13.17648081,"ECCENTRICITY":0.0002102,"INCLINATION":87.9189,"RA_OF_ASC_NODE":17.1419,"ARG_OF_PERICENTER":87.9657,"MEAN_ANOMALY":272.1716,"EPHEMERIS_TYPE":0,"CLASSIFICATION_TYPE":"U","NORAD_CAT_ID":51637,"ELEMENT_SET_NO":999,"REV_AT_EPOCH":20625,"BSTAR":7.3972e-05,"MEAN_MOTION_DOT":4.2e-07,"MEAN_MOTION_DDOT":0.0},{"OBJECT_NAME":"ONEWEB-0444","OBJECT_ID":"2022-012S","EPOCH":"2026-04-21T08:41:50.180640","MEAN_MOTION":13.10371813,"ECCENTRICITY":0.0002187,"INCLINATION":87.8843,"RA_OF_ASC_NODE":47.5745,"ARG_OF_PERICENTER":83.3118,"MEAN_ANOMALY":276.8258,"EPHEMERIS_TYPE":0,"CLASSIFICATION_TYPE":"U","NORAD_CAT_ID":51638,"ELEMENT_SET_NO":999,"REV_AT_EPOCH":20189,"BSTAR":0.007474,"MEAN_MOTION_DOT":2.622e-05,"MEAN_MOTION_DDOT":0.0},{"OBJECT_NAME":"ONEWEB-0445","OBJECT_ID":"2022-012T","EPOCH":"2026-04-21T07:22:56.493120","MEAN_MOTION":13.10373561,"ECCENTRICITY":0.0001749,"INCLINATION":87.8865,"RA_OF_ASC_NODE":47.5687,"ARG_OF_PERICENTER":72.95,"MEAN_ANOMALY":287.1819,"EPHEMERIS_TYPE":0,"CLASSIFICATION_TYPE":"U","NORAD_CAT_ID":51639,"ELEMENT_SET_NO":999,"REV_AT_EPOCH":20189,"BSTAR":-0.0017001,"MEAN_MOTION_DOT":-5.81e-06,"MEAN_MOTION_DDOT":0.0},{"OBJECT_NAME":"ONEWEB-0446","OBJECT_ID":"2022-012U","EPOCH":"2026-04-21T12:19:21.074304","MEAN_MOTION":13.1036922,"ECCENTRICITY":0.0001791,"INCLINATION":87.8847,"RA_OF_ASC_NODE":47.5609,"ARG_OF_PERICENTER":77.0175,"MEAN_ANOMALY":283.1153,"EPHEMERIS_TYPE":0,"CLASSIFICATION_TYPE":"U","NORAD_CAT_ID":51640,"ELEMENT_SET_NO":999,"REV_AT_EPOCH":20190,"BSTAR":0.001419,"MEAN_MOTION_DOT":5.08e-06,"MEAN_MOTION_DDOT":0.0},{"OBJECT_NAME":"ONEWEB-0448","OBJECT_ID":"2022-012V","EPOCH":"2026-04-21T12:26:31.157088","MEAN_MOTION":13.10373632,"ECCENTRICITY":0.0002044,"INCLINATION":87.8839,"RA_OF_ASC_NODE":47.5577,"ARG_OF_PERICENTER":82.2727,"MEAN_ANOMALY":277.8633,"EPHEMERIS_TYPE":0,"CLASSIFICATION_TYPE":"U","NORAD_CAT_ID":51641,"ELEMENT_SET_NO":999,"REV_AT_EPOCH":20187,"BSTAR":0.00010747,"MEAN_MOTION_DOT":5e-07,"MEAN_MOTION_DDOT":0.0},{"OBJECT_NAME":"ONEWEB-0449","OBJECT_ID":"2022-012W","EPOCH":"2026-04-21T12:33:40.274784","MEAN_MOTION":13.10369213,"ECCENTRICITY":0.0001806,"INCLINATION":87.8847,"RA_OF_ASC_NODE":47.5391,"ARG_OF_PERICENTER":93.8532,"MEAN_ANOMALY":266.2802,"EPHEMERIS_TYPE":0,"CLASSIFICATION_TYPE":"U","NORAD_CAT_ID":51642,"ELEMENT_SET_NO":999,"REV_AT_EPOCH":20188,"BSTAR":-0.00024397,"MEAN_MOTION_DOT":-7.3e-07,"MEAN_MOTION_DDOT":0.0},{"OBJECT_NAME":"ONEWEB-0451","OBJECT_ID":"2022-012X","EPOCH":"2026-04-21T11:37:43.470624","MEAN_MOTION":13.17649658,"ECCENTRICITY":0.0001764,"INCLINATION":87.9193,"RA_OF_ASC_NODE":17.1027,"ARG_OF_PERICENTER":86.8656,"MEAN_ANOMALY":273.2678,"EPHEMERIS_TYPE":0,"CLASSIFICATION_TYPE":"U","NORAD_CAT_ID":51643,"ELEMENT_SET_NO":999,"REV_AT_EPOCH":20619,"BSTAR":3.7980000000000006e-05,"MEAN_MOTION_DOT":2.8e-07,"MEAN_MOTION_DDOT":0.0},{"OBJECT_NAME":"ONEWEB-0452","OBJECT_ID":"2022-012Y","EPOCH":"2026-04-21T11:35:16.302912","MEAN_MOTION":13.17649367,"ECCENTRICITY":0.0001946,"INCLINATION":87.9184,"RA_OF_ASC_NODE":17.1453,"ARG_OF_PERICENTER":88.2359,"MEAN_ANOMALY":271.8995,"EPHEMERIS_TYPE":0,"CLASSIFICATION_TYPE":"U","NORAD_CAT_ID":51644,"ELEMENT_SET_NO":999,"REV_AT_EPOCH":20620,"BSTAR":-6.9771e-05,"MEAN_MOTION_DOT":-1.4e-07,"MEAN_MOTION_DDOT":0.0},{"OBJECT_NAME":"ONEWEB-0456","OBJECT_ID":"2022-012AA","EPOCH":"2026-04-21T07:18:08.706816","MEAN_MOTION":13.10371142,"ECCENTRICITY":0.0002033,"INCLINATION":87.8853,"RA_OF_ASC_NODE":47.5652,"ARG_OF_PERICENTER":77.8986,"MEAN_ANOMALY":282.2369,"EPHEMERIS_TYPE":0,"CLASSIFICATION_TYPE":"U","NORAD_CAT_ID":51646,"ELEMENT_SET_NO":999,"REV_AT_EPOCH":20189,"BSTAR":-0.001374,"MEAN_MOTION_DOT":-4.67e-06,"MEAN_MOTION_DDOT":0.0},{"OBJECT_NAME":"ONEWEB-0457","OBJECT_ID":"2022-012AB","EPOCH":"2026-04-21T12:14:34.305792","MEAN_MOTION":13.10370226,"ECCENTRICITY":0.0001451,"INCLINATION":87.8841,"RA_OF_ASC_NODE":47.5491,"ARG_OF_PERICENTER":78.0346,"MEAN_ANOMALY":282.0944,"EPHEMERIS_TYPE":0,"CLASSIFICATION_TYPE":"U","NORAD_CAT_ID":51647,"ELEMENT_SET_NO":999,"REV_AT_EPOCH":20192,"BSTAR":0.0015448,"MEAN_MOTION_DOT":5.52e-06,"MEAN_MOTION_DDOT":0.0},{"OBJECT_NAME":"ONEWEB-0458","OBJECT_ID":"2022-012AC","EPOCH":"2026-04-21T07:15:45.435744","MEAN_MOTION":13.10370804,"ECCENTRICITY":0.0001928,"INCLINATION":87.8846,"RA_OF_ASC_NODE":47.5735,"ARG_OF_PERICENTER":84.4112,"MEAN_ANOMALY":275.7235,"EPHEMERIS_TYPE":0,"CLASSIFICATION_TYPE":"U","NORAD_CAT_ID":51648,"ELEMENT_SET_NO":999,"REV_AT_EPOCH":20185,"BSTAR":-0.0015595000000000001,"MEAN_MOTION_DOT":-5.32e-06,"MEAN_MOTION_DDOT":0.0},{"OBJECT_NAME":"ONEWEB-0461","OBJECT_ID":"2022-012AD","EPOCH":"2026-04-21T12:06:51.754752","MEAN_MOTION":13.17647551,"ECCENTRICITY":0.0001725,"INCLINATION":87.9195,"RA_OF_ASC_NODE":17.1134,"ARG_OF_PERICENTER":78.557,"MEAN_ANOMALY":281.5755,"EPHEMERIS_TYPE":0,"CLASSIFICATION_TYPE":"U","NORAD_CAT_ID":51649,"ELEMENT_SET_NO":999,"REV_AT_EPOCH":20642,"BSTAR":-9.164600000000001e-05,"MEAN_MOTION_DOT":-2.3e-07,"MEAN_MOTION_DDOT":0.0},{"OBJECT_NAME":"ONEWEB-0463","OBJECT_ID":"2022-012AE","EPOCH":"2026-04-21T11:40:08.874912","MEAN_MOTION":13.17649126,"ECCENTRICITY":0.0001695,"INCLINATION":87.9181,"RA_OF_ASC_NODE":17.1452,"ARG_OF_PERICENTER":77.7545,"MEAN_ANOMALY":282.3776,"EPHEMERIS_TYPE":0,"CLASSIFICATION_TYPE":"U","NORAD_CAT_ID":51650,"ELEMENT_SET_NO":999,"REV_AT_EPOCH":20620,"BSTAR":0.00016142,"MEAN_MOTION_DOT":7.6e-07,"MEAN_MOTION_DDOT":0.0}]